SL-3 R/B                
1 19046U 88032B   26067.94252850  .00007254  00000+0  33834-3 0  9998
2 19046  97.5197  51.1961 0024326 234.2877 125.6094 15.19901611 51998
SL-16 R/B               
1 19120U 88039B   26067.99382831 -.00000120  00000+0 -33778-4 0  9991
2 19120  71.0133  70.0190 0022741 335.3401  24.6635 14.19615425958288
COSMOS 1953             
1 19210U 88050A   26067.70912418  .00011767  00000+0  42199-3 0  9996
2 19210  82.5103 159.2329 0012436 125.7008 234.5391 15.28509736 37636
SL-8 R/B                
1 19257U 88053B   26067.62430779  .00000342  00000+0  11922-3 0  9993
2 19257  74.0462 114.4304 0021401 293.8475 182.5791 14.38915235976446
COSMOS 1975             
1 19573U 88093A   26067.61158049  .00010542  00000+0  38331-3 0  9990
2 19573  82.5181 118.7674 0012038 167.1429 193.0119 15.28054283 19248
SL-14 R/B               
1 19574U 88093B   26067.98834747  .00000775  00000+0  86312-4 0  9997
2 19574  82.5305  42.7020 0021813  43.6768  15.3963 14.85655601   913
SL-16 R/B               
1 19650U 88102B   26067.63350137  .00000302  00000+0  17681-3 0  9999
2 19650  71.0000 153.7196 0013888   3.3231 356.7981 14.16151420926745
INTERCOSMOS 24          
1 20261U 89080A   26067.53167381  .00000973  00000+0  28986-3 0  9995
2 20261  82.6028 105.1585 1186712 295.5108  52.7949 12.59556211666652
SL-14 R/B               
1 20262U 89080C   26067.75562965  .00000817  00000+0  24191-3 0  9998
2 20262  82.5974 173.7856 1230540 186.8838 171.3891 12.50492498660032
DELTA 1 R/B             
1 20323U 89089B   26067.58619538  .00000460  00000+0  12209-3 0  9996
2 20323  97.0706 275.2004 0070409 125.4161 235.3640 14.50662106895579
ARIANE 40 R/B           
1 20443U 90005H   26067.77116415  .00000374  00000+0  13243-3 0  9999
2 20443  98.3085 128.4600 0009792 201.3065 158.7717 14.39869962892678
DELTA 2 R/B(1)          
1 20453U 90008B   26067.41212624  .00091801  00000+0  10759-2 0  9996
2 20453  35.6042 183.2376 0085677 246.9553 112.2130 15.55817429925938
